NOAA 15                 
1 25338U 98030A   21015.82784471  .00000023  00000-0  28263-4 0  9991
2 25338  98.6986  45.5898 0010488  10.9185 349.2220 14.26008752179490
DMSP 5D-3 F15 (USA 147) 
1 25991U 99067A   21015.83915630 -.00000111  00000-0 -32635-4 0  9999
2 25991  98.9980 355.1198 0009341 213.2967 163.2763 14.16465010 90511
METEOSAT-8 (MSG-1)      
1 27509U 02040B   21015.17683745  .00000127  00000-0  00000-0 0  9999
2 27509   7.0994  53.1962 0000526 171.0092 355.7621  1.00277500 67412
DMSP 5D-3 F16 (USA 172) 
1 28054U 03048A   21015.78891608 -.00000081  00000-0 -18905-4 0  9998
2 28054  98.9373   0.3776 0007249 349.2645 108.7452 14.13648110889896
NOAA 18                 
1 28654U 05018A   21015.80515802  .00000106  00000-0  81753-4 0  9992
2 28654  99.0164  79.9174 0014021 356.7239   3.3838 14.12573224806983
METEOSAT-9 (MSG-2)      
1 28912U 05049B   21015.31275125  .00000008  00000-0  00000-0 0  9993
2 28912   4.8794  69.2177 0000979 265.0666 256.5187  1.00272393 55195
FORMOSAT-3 FM6          
1 29047U 06011A   21015.48060253  .00000077  00000-0  46456-4 0  9990
2 29047  71.9786  37.2209 0048374  54.4837 306.0797 14.28774859771598
FORMOSAT-3 FM1          
1 29048U 06011B   21015.50401523  .00000102  00000-0  56419-4 0  9992
2 29048  71.9675 307.8324 0043138  11.7475 348.4657 14.28747155774088
FORMOSAT-3 FM5          
1 29049U 06011C   21015.56357484  .00000089  00000-0  51236-4 0  9991
2 29049  72.0209 120.5685 0033774  36.4421 323.9005 14.28824192769888
FORMOSAT-3 FM3          
1 29050U 06011D   21015.35301661  .00000151  00000-0  42054-4 0  9994
2 29050  72.0148 245.4205 0051509 298.4557  61.1411 14.59004763787232
FORMOSAT-3 FM4          
1 29051U 06011E   21015.76833018  .00000034  00000-0  29244-4 0  9992
2 29051  72.0055  21.7942 0070673 277.4559  81.8551 14.28861211772508
FORMOSAT-3 FM2          
1 29052U 06011F   21015.54269863  .00000071  00000-0  43952-4 0  9993
2 29052  72.0349  97.0956 0040398 355.0625   5.0107 14.28965827769996
EWS-G1 (GOES 13)        
1 29155U 06018A   21015.53965229  .00000030  00000-0  00000-0 0  9990
2 29155   0.3603 104.4252 0006440 131.2863 135.2036  1.00273670 23520
METOP-A                 
1 29499U 06044A   21015.85361111 -.00000000  00000-0  19009-4 0  9996
2 29499  98.4948  61.0443 0001329  72.2683 273.0291 14.21495462739054
DMSP 5D-3 F17 (USA 191) 
1 29522U 06050A   21015.76505047  .00000001  00000-0  23335-4 0  9995
2 29522  98.7919  34.8609 0008905 295.9546  64.0709 14.14033057732733
FENGYUN 3A              
1 32958U 08026A   21015.64873823 -.00000023  00000-0  88403-5 0  9997
2 32958  98.4312 356.6446 0009866  82.7968 277.4330 14.18644905654912
FENGYUN 2E              
1 33463U 08066A   21015.58382656 -.00000216  00000-0  00000-0 0  9991
2 33463   4.7848  67.8340 0003997 318.3471  26.2764  1.00273451 44249
NOAA 19                 
1 33591U 09005A   21015.68347528  .00000025  00000-0  38751-4 0  9992
2 33591  99.1927  32.5273 0013677 197.4363 162.6340 14.12448586615354
GOES 14                 
1 35491U 09033A   21015.60548581 -.00000100  00000-0  00000-0 0  9995
2 35491   0.0972 238.6455 0012211 347.3975   2.9472  1.00271588 42282
METEOR-M 1              
1 35865U 09049A   21015.69696123 -.00000007  00000-0  15563-4 0  9992
2 35865  98.4617 359.9484 0001398 314.6583  45.4481 14.22261851588084
DMSP 5D-3 F18 (USA 210) 
1 35951U 09057A   21015.78199955  .00000049  00000-0  48656-4 0  9992
2 35951  98.6651   4.7356 0011930 119.7295 240.5066 14.13325795579995
GOES 15                 
1 36411U 10008A   21015.58866462  .00000047  00000-0  00000-0 0  9999
2 36411   0.3901  98.8623 0002253 321.7419 138.4942  1.00277679 39838
COMS 1                  
1 36744U 10032A   21015.76814816 -.00000350  00000-0  00000+0 0  9998
2 36744   0.0327 123.2592 0000712 160.9766 235.8759  1.00271725 38811
FENGYUN 3B              
1 37214U 10059A   21015.78013883 -.00000012  00000-0  17494-4 0  9992
2 37214  99.0688   7.0262 0017512  28.8469  72.3305 14.15972300527724
SUOMI NPP               
1 37849U 11061A   21015.83492079  .00000016  00000-0  28121-4 0  9996
2 37849  98.7240 316.6595 0001349  64.4664 316.4377 14.19547805477750
FENGYUN 2F              
1 38049U 12002A   21015.54968443 -.00000365  00000-0  00000-0 0  9996
2 38049   2.5552  82.8878 0004405  28.7908 313.0650  1.00284729 33044
METEOSAT-10 (MSG-3)     
1 38552U 12035B   21015.31388532  .00000055  00000-0  00000-0 0  9996
2 38552   1.2386 356.1986 0000558  42.4802 198.6884  1.00265569 31014
METOP-B                 
1 38771U 12049A   21015.79624660  .00000002  00000-0  20842-4 0  9993
2 38771  98.7023  78.0378 0002474 102.2514  43.2865 14.21483067432184
FENGYUN 3C              
1 39260U 13052A   21015.84521828  .00000009  00000-0  25651-4 0  9990
2 39260  98.5224  63.3786 0010580 331.2715  28.7872 14.15856311378671
METEOR-M 2              
1 40069U 14037A   21015.81630690 -.00000010  00000-0  14824-4 0  9991
2 40069  98.4790  51.0542 0006338  35.4480 324.7110 14.20680053338369
HIMAWARI-8              
1 40267U 14060A   21015.77067800 -.00000282  00000-0  00000+0 0  9996
2 40267   0.0620 217.6403 0001016 101.4171 214.4170  1.00269492 23024
FENGYUN 2G              
1 40367U 14090A   21015.83418586 -.00000304  00000-0  00000+0 0  9993
2 40367   0.6580  93.0589 0003853 285.7059 136.2839  1.00258896 22207
METEOSAT-11 (MSG-4)     
1 40732U 15034A   21015.31222784 -.00000006  00000-0  00000-0 0  9994
2 40732   0.3391 260.4670 0001418 354.0571 333.5987  1.00260811 20197
ELEKTRO-L 2             
1 41105U 15074A   21015.45232898 -.00000123  00000-0  00000-0 0  9995
2 41105   1.7092  94.4651 0001916 148.4382  20.5721  1.00271655 18674
HIMAWARI-9              
1 41836U 16064A   21015.59146606 -.00000282  00000-0  00000-0 0  9998
2 41836   0.0177  22.7827 0001043 328.5721 117.5499  1.00270921 15355
GOES 16                 
1 41866U 16071A   21015.79937867 -.00000254  00000-0  00000+0 0  9996
2 41866   0.0416 220.7123 0001247 109.1518 358.1493  1.00270650 15262
FENGYUN 4A              
1 41882U 16077A   21015.77935420 -.00000334  00000-0  00000+0 0  9990
2 41882   0.0366  61.6875 0005330 356.9943  81.7402  1.00263461 15149
CYGFM05                 
1 41884U 16078A   21015.58635026  .00000385  00000-0  21934-4 0  9990
2 41884  34.9549 182.0812 0015035 142.5060 217.6702 15.14833196226269
CYGFM04                 
1 41885U 16078B   21015.61615600  .00000419  00000-0  23410-4 0  9990
2 41885  34.9482 173.9357 0013556 155.5309 204.6048 15.15356615226362
CYGFM02                 
1 41886U 16078C   21015.54349434  .00000172  00000-0  10611-4 0  9997
2 41886  34.9574 176.2713 0014262 150.1656 209.9871 15.15354996226359
CYGFM01                 
1 41887U 16078D   21015.51561255  .00000394  00000-0  22514-4 0  9993
2 41887  34.9516 183.9883 0015487 142.2601 217.9198 15.14644962226211
CYGFM08                 
1 41888U 16078E   21015.58069857  .00000389  00000-0  22026-4 0  9994
2 41888  34.9487 178.4725 0014767 151.4382 208.7141 15.15059421226319
CYGFM06                 
1 41889U 16078F   21015.52304272  .00000401  00000-0  22477-4 0  9997
2 41889  34.9568 175.0895 0013200 149.9512 210.1959 15.15345772226309
CYGFM07                 
1 41890U 16078G   21015.56752118  .00000395  00000-0  22164-4 0  9994
2 41890  34.9506 173.8094 0012997 154.1727 205.9636 15.15345377226303
CYGFM03                 
1 41891U 16078H   21015.56386396  .00000402  00000-0  22522-4 0  9993
2 41891  34.9538 174.1436 0012474 152.7285 207.4084 15.15331983226308
FENGYUN 3D              
1 43010U 17072A   21015.77807642 -.00000010  00000-0  16288-4 0  9996
2 43010  98.7739 318.9032 0001467 144.4983 215.6295 14.19758649164320
NOAA 20                 
1 43013U 17073A   21015.79584139  .00000012  00000-0  26518-4 0  9993
2 43013  98.7406 316.6460 0001358  88.6908 271.4424 14.19547836163786
GOES 17                 
1 43226U 18022A   21015.58208220  .00000091  00000-0  00000-0 0  9996
2 43226   0.0107 235.5918 0000413 111.7177 200.2147  1.00272403 10571
FENGYUN 2H              
1 43491U 18050A   21015.58938373 -.00000136  00000-0  00000-0 0  9991
2 43491   0.1649 251.1457 0002412 245.9580 269.7326  1.00270789  9671
METOP-C                 
1 43689U 18087A   21015.80521850  .00000003  00000-0  21226-4 0  9992
2 43689  98.7093  78.4346 0003530  98.6772 261.4806 14.21488337113766
GEO-KOMPSAT-2A          
1 43823U 18100A   21015.26581824 -.00000351  00000-0  00000-0 0  9995
2 43823   0.0256 262.9469 0001950  13.2909  62.6413  1.00270109  7775
IOD-1 GEMS              
1 44385U 98067QK  21015.38529055  .00057335  00000-0  36435-3 0  9997
2 44385  51.6370 338.1191 0005064  80.9875 279.1698 15.75887797 87692
METEOR-M2 2             
1 44387U 19038A   21015.82401065 -.00000035  00000-0  38673-5 0  9993
2 44387  98.6492 337.9634 0001536  24.4506 335.6749 14.23684659 79750
